CCSDS_OMM_VERS = 2.0
CREATION_DATE  = 
ORIGINATOR     = 

OBJECT_NAME    = COSMOS 1933
OBJECT_ID      = 1988-020A
CENTER_NAME    = EARTH
REF_FRAME      = TEME
TIME_SYSTEM    = UTC
MEAN_ELEMENT_THEORY = SGP/SGP4

EPOCH          = 2026-02-14T02:57:48.786048
MEAN_MOTION    = 15.17774039
ECCENTRICITY   = .00027274
INCLINATION    = 82.5115
RA_OF_ASC_NODE = 274.2292
ARG_OF_PERICENTER = 295.5351
MEAN_ANOMALY   = 64.5601

EPHEMERIS_TYPE = 0
CLASSIFICATION_TYPE = U
NORAD_CAT_ID   = 18958
ELEMENT_SET_NO = 999
REV_AT_EPOCH   = 4665
BSTAR          = .18799117E-3
MEAN_MOTION_DOT = .3826E-4
MEAN_MOTION_DDOT = 0

CCSDS_OMM_VERS = 2.0
CREATION_DATE  = 
ORIGINATOR     = 

OBJECT_NAME    = SL-3 R/B
OBJECT_ID      = 1988-032B
CENTER_NAME    = EARTH
REF_FRAME      = TEME
TIME_SYSTEM    = UTC
MEAN_ELEMENT_THEORY = SGP/SGP4

EPOCH          = 2026-02-14T11:46:00.764832
MEAN_MOTION    = 15.19608617
ECCENTRICITY   = .0024802
INCLINATION    = 97.5151
RA_OF_ASC_NODE = 28.8352
ARG_OF_PERICENTER = 318.3880
MEAN_ANOMALY   = 41.5466

EPHEMERIS_TYPE = 0
CLASSIFICATION_TYPE = U
NORAD_CAT_ID   = 19046
ELEMENT_SET_NO = 999
REV_AT_EPOCH   = 4858
BSTAR          = .31091E-3
MEAN_MOTION_DOT = .6604E-4
MEAN_MOTION_DDOT = 0

CCSDS_OMM_VERS = 2.0
CREATION_DATE  = 
ORIGINATOR     = 

OBJECT_NAME    = SL-16 R/B
OBJECT_ID      = 1988-039B
CENTER_NAME    = EARTH
REF_FRAME      = TEME
TIME_SYSTEM    = UTC
MEAN_ELEMENT_THEORY = SGP/SGP4

EPOCH          = 2026-02-14T12:23:21.599808
MEAN_MOTION    = 14.19612688
ECCENTRICITY   = .0021323
INCLINATION    = 71.0145
RA_OF_ASC_NODE = 117.5517
ARG_OF_PERICENTER = 9.5194
MEAN_ANOMALY   = 350.6331

EPHEMERIS_TYPE = 0
CLASSIFICATION_TYPE = U
NORAD_CAT_ID   = 19120
ELEMENT_SET_NO = 999
REV_AT_EPOCH   = 95509
BSTAR          = .11035E-3
MEAN_MOTION_DOT = .185E-5
MEAN_MOTION_DDOT = 0

CCSDS_OMM_VERS = 2.0
CREATION_DATE  = 
ORIGINATOR     = 

OBJECT_NAME    = COSMOS 1953
OBJECT_ID      = 1988-050A
CENTER_NAME    = EARTH
REF_FRAME      = TEME
TIME_SYSTEM    = UTC
MEAN_ELEMENT_THEORY = SGP/SGP4

EPOCH          = 2026-02-14T10:44:24.044064
MEAN_MOTION    = 15.28060422
ECCENTRICITY   = .0010988
INCLINATION    = 82.5094
RA_OF_ASC_NODE = 181.6080
ARG_OF_PERICENTER = 201.2212
MEAN_ANOMALY   = 158.8573

EPHEMERIS_TYPE = 0
CLASSIFICATION_TYPE = U
NORAD_CAT_ID   = 19210
ELEMENT_SET_NO = 999
REV_AT_EPOCH   = 3423
BSTAR          = .39542E-3
MEAN_MOTION_DOT = .10872E-3
MEAN_MOTION_DDOT = 0

CCSDS_OMM_VERS = 2.0
CREATION_DATE  = 
ORIGINATOR     = 

OBJECT_NAME    = SL-8 R/B
OBJECT_ID      = 1988-053B
CENTER_NAME    = EARTH
REF_FRAME      = TEME
TIME_SYSTEM    = UTC
MEAN_ELEMENT_THEORY = SGP/SGP4

EPOCH          = 2026-02-14T10:28:38.371872
MEAN_MOTION    = 14.38901669
ECCENTRICITY   = .0020653
INCLINATION    = 74.0485
RA_OF_ASC_NODE = 155.3242
ARG_OF_PERICENTER = 338.7790
MEAN_ANOMALY   = 89.9537

EPHEMERIS_TYPE = 0
CLASSIFICATION_TYPE = U
NORAD_CAT_ID   = 19257
ELEMENT_SET_NO = 999
REV_AT_EPOCH   = 97325
BSTAR          = .89883E-4
MEAN_MOTION_DOT = .251E-5
MEAN_MOTION_DDOT = 0

CCSDS_OMM_VERS = 2.0
CREATION_DATE  = 
ORIGINATOR     = 

OBJECT_NAME    = COSMOS 1975
OBJECT_ID      = 1988-093A
CENTER_NAME    = EARTH
REF_FRAME      = TEME
TIME_SYSTEM    = UTC
MEAN_ELEMENT_THEORY = SGP/SGP4

EPOCH          = 2026-02-14T08:15:06.103296
MEAN_MOTION    = 15.27665864
ECCENTRICITY   = .0010333
INCLINATION    = 82.5222
RA_OF_ASC_NODE = 141.1075
ARG_OF_PERICENTER = 249.3887
MEAN_ANOMALY   = 110.6245

EPHEMERIS_TYPE = 0
CLASSIFICATION_TYPE = U
NORAD_CAT_ID   = 19573
ELEMENT_SET_NO = 999
REV_AT_EPOCH   = 1584
BSTAR          = .37177E-3
MEAN_MOTION_DOT = .10099E-3
MEAN_MOTION_DDOT = 0

CCSDS_OMM_VERS = 2.0
CREATION_DATE  = 
ORIGINATOR     = 

OBJECT_NAME    = SL-14 R/B
OBJECT_ID      = 1988-093B
CENTER_NAME    = EARTH
REF_FRAME      = TEME
TIME_SYSTEM    = UTC
MEAN_ELEMENT_THEORY = SGP/SGP4

EPOCH          = 2026-02-14T12:04:20.522784
MEAN_MOTION    = 14.85629271
ECCENTRICITY   = .0022199
INCLINATION    = 82.5278
RA_OF_ASC_NODE = 63.8160
ARG_OF_PERICENTER = 113.2278
MEAN_ANOMALY   = 1.8025

EPHEMERIS_TYPE = 0
CLASSIFICATION_TYPE = U
NORAD_CAT_ID   = 19574
ELEMENT_SET_NO = 999
REV_AT_EPOCH   = 99759
BSTAR          = .56101E-4
MEAN_MOTION_DOT = .512E-5
MEAN_MOTION_DDOT = 0

CCSDS_OMM_VERS = 2.0
CREATION_DATE  = 
ORIGINATOR     = 

OBJECT_NAME    = SL-16 R/B
OBJECT_ID      = 1988-102B
CENTER_NAME    = EARTH
REF_FRAME      = TEME
TIME_SYSTEM    = UTC
MEAN_ELEMENT_THEORY = SGP/SGP4

EPOCH          = 2026-02-14T12:35:38.195232
MEAN_MOTION    = 14.16150730
ECCENTRICITY   = .0012711
INCLINATION    = 70.9986
RA_OF_ASC_NODE = 200.2339
ARG_OF_PERICENTER = 39.0768
MEAN_ANOMALY   = 321.1271

EPHEMERIS_TYPE = 0
CLASSIFICATION_TYPE = U
NORAD_CAT_ID   = 19650
ELEMENT_SET_NO = 999
REV_AT_EPOCH   = 92361
BSTAR          = .13985E-3
MEAN_MOTION_DOT = .229E-5
MEAN_MOTION_DDOT = 0

CCSDS_OMM_VERS = 2.0
CREATION_DATE  = 
ORIGINATOR     = 

OBJECT_NAME    = INTERCOSMOS 24
OBJECT_ID      = 1989-080A
CENTER_NAME    = EARTH
REF_FRAME      = TEME
TIME_SYSTEM    = UTC
MEAN_ELEMENT_THEORY = SGP/SGP4

EPOCH          = 2026-02-14T07:00:20.739744
MEAN_MOTION    = 12.59524303
ECCENTRICITY   = .1187678
INCLINATION    = 82.6058
RA_OF_ASC_NODE = 119.6353
ARG_OF_PERICENTER = 347.1652
MEAN_ANOMALY   = 10.1472

EPHEMERIS_TYPE = 0
CLASSIFICATION_TYPE = U
NORAD_CAT_ID   = 20261
ELEMENT_SET_NO = 999
REV_AT_EPOCH   = 66385
BSTAR          = .16054E-3
MEAN_MOTION_DOT = .552E-5
MEAN_MOTION_DDOT = 0

CCSDS_OMM_VERS = 2.0
CREATION_DATE  = 
ORIGINATOR     = 

OBJECT_NAME    = SL-14 R/B
OBJECT_ID      = 1989-080C
CENTER_NAME    = EARTH
REF_FRAME      = TEME
TIME_SYSTEM    = UTC
MEAN_ELEMENT_THEORY = SGP/SGP4

EPOCH          = 2026-02-14T10:19:48.770112
MEAN_MOTION    = 12.50463897
ECCENTRICITY   = .122958
INCLINATION    = 82.5952
RA_OF_ASC_NODE = 188.1159
ARG_OF_PERICENTER = 237.9287
MEAN_ANOMALY   = 109.6643

EPHEMERIS_TYPE = 0
CLASSIFICATION_TYPE = U
NORAD_CAT_ID   = 20262
ELEMENT_SET_NO = 999
REV_AT_EPOCH   = 65724
BSTAR          = .15988E-3
MEAN_MOTION_DOT = .53E-5
MEAN_MOTION_DDOT = 0

CCSDS_OMM_VERS = 2.0
CREATION_DATE  = 
ORIGINATOR     = 

OBJECT_NAME    = DELTA 1 R/B
OBJECT_ID      = 1989-089B
CENTER_NAME    = EARTH
REF_FRAME      = TEME
TIME_SYSTEM    = UTC
MEAN_ELEMENT_THEORY = SGP/SGP4

EPOCH          = 2026-02-14T12:19:37.496352
MEAN_MOTION    = 14.50643723
ECCENTRICITY   = .0068652
INCLINATION    = 97.0722
RA_OF_ASC_NODE = 256.6359
ARG_OF_PERICENTER = 194.7707
MEAN_ANOMALY   = 165.1487

EPHEMERIS_TYPE = 0
CLASSIFICATION_TYPE = U
NORAD_CAT_ID   = 20323
ELEMENT_SET_NO = 999
REV_AT_EPOCH   = 89237
BSTAR          = .10601E-3
MEAN_MOTION_DOT = .393E-5
MEAN_MOTION_DDOT = 0

CCSDS_OMM_VERS = 2.0
CREATION_DATE  = 
ORIGINATOR     = 

OBJECT_NAME    = ARIANE 40 R/B
OBJECT_ID      = 1990-005H
CENTER_NAME    = EARTH
REF_FRAME      = TEME
TIME_SYSTEM    = UTC
MEAN_ELEMENT_THEORY = SGP/SGP4

EPOCH          = 2026-02-14T04:28:27.300576
MEAN_MOTION    = 14.39854614
ECCENTRICITY   = .0008879
INCLINATION    = 98.3136
RA_OF_ASC_NODE = 106.5419
ARG_OF_PERICENTER = 275.4821
MEAN_ANOMALY   = 84.5355

EPHEMERIS_TYPE = 0
CLASSIFICATION_TYPE = U
NORAD_CAT_ID   = 20443
ELEMENT_SET_NO = 999
REV_AT_EPOCH   = 88942
BSTAR          = .10779E-3
MEAN_MOTION_DOT = .296E-5
MEAN_MOTION_DDOT = 0

