COSMOS 1933             
1 18958U 88020A   26045.12348132  .00003826  00000+0  18799-3 0  9995
2 18958  82.5115 274.2292 0002727 295.5351  64.5601 15.17774039 46658
SL-3 R/B                
1 19046U 88032B   26045.49028663  .00006604  00000+0  31091-3 0  9998
2 19046  97.5151  28.8352 0024802 318.3880  41.5466 15.19608617 48580
SL-16 R/B               
1 19120U 88039B   26045.51622222  .00000185  00000+0  11035-3 0  9996
2 19120  71.0145 117.5517 0021323   9.5194 350.6331 14.19612688955094
COSMOS 1953             
1 19210U 88050A   26045.44750051  .00010872  00000+0  39542-3 0  9990
2 19210  82.5094 181.6080 0010988 201.2212 158.8573 15.28060422 34232
SL-8 R/B                
1 19257U 88053B   26045.43655523  .00000251  00000+0  89883-4 0  9995
2 19257  74.0485 155.3242 0020653 338.7790  89.9537 14.38901669973253
COSMOS 1975             
1 19573U 88093A   26045.34382064  .00010099  00000+0  37177-3 0  9996
2 19573  82.5222 141.1075 0010333 249.3887 110.6245 15.27665864 15845
SL-14 R/B               
1 19574U 88093B   26045.50301531  .00000512  00000+0  56101-4 0  9993
2 19574  82.5278  63.8160 0022199 113.2278   1.8025 14.85629271997591
SL-16 R/B               
1 19650U 88102B   26045.52474763  .00000229  00000+0  13985-3 0  9996
2 19650  70.9986 200.2339 0012711  39.0768 321.1271 14.16150730923612
INTERCOSMOS 24          
1 20261U 89080A   26045.29190671  .00000552  00000+0  16054-3 0  9998
2 20261  82.6058 119.6353 1187678 347.1652  10.1472 12.59524303663853
SL-14 R/B               
1 20262U 89080C   26045.43042558  .00000530  00000+0  15988-3 0  9996
2 20262  82.5952 188.1159 1229580 237.9287 109.6643 12.50463897657241
DELTA 1 R/B             
1 20323U 89089B   26045.51362843  .00000393  00000+0  10601-3 0  9998
2 20323  97.0722 256.6359 0068652 194.7707 165.1487 14.50643723892373
ARIANE 40 R/B           
1 20443U 90005H   26045.18642709  .00000296  00000+0  10779-3 0  9994
2 20443  98.3136 106.5419 0008879 275.4821  84.5355 14.39854614889428
